GLOBALSTAR M094         
1 39074U 13005C   25338.42248029 -.00000089  00000+0  80286-4 0  9999
2 39074  51.9981  23.8002 0000157 146.3560 213.7317 12.62265066593873
GLOBALSTAR M096         
1 39075U 13005D   25338.51474534 -.00000102  00000+0  82513-5 0  9994
2 39075  52.0084  72.1650 0000503 137.9100 222.1806 12.62269128592809
GLOBALSTAR M078         
1 39076U 13005E   25338.64716223 -.00000095  00000+0  49859-4 0  9999
2 39076  51.9841 156.0440 0001137 144.6046 215.4896 12.62272393591447
GLOBALSTAR M087         
1 52888U 22064A   25338.44878653 -.00000094  00000+0  54159-4 0  9992
2 52888  52.0010 295.3239 0000337  37.4687 322.6203 12.62260851166545
